[{"OBJECT_NAME":"STARLINK-32604","OBJECT_ID":"2024-217P","EPOCH":"2026-01-20T18:54:45.543168","MEAN_MOTION":15.30255071,"ECCENTRICITY":0.00014894,"INCLINATION":53.1576,"RA_OF_ASC_NODE":56.6596,"ARG_OF_PERICENTER":74.9648,"MEAN_ANOMALY":285.1517,"EPHEMERIS_TYPE":0,"CLASSIFICATION_TYPE":"U","NORAD_CAT_ID":62070,"ELEMENT_SET_NO":999,"REV_AT_EPOCH":6608,"BSTAR":0.0013498592,"MEAN_MOTION_DOT":0.00039903,"MEAN_MOTION_DDOT":0},{"OBJECT_NAME":"STARLINK-32553","OBJECT_ID":"2024-217Q","EPOCH":"2026-01-20T18:53:15.480672","MEAN_MOTION":15.30292763,"ECCENTRICITY":0.000158,"INCLINATION":53.1574,"RA_OF_ASC_NODE":56.6543,"ARG_OF_PERICENTER":80.2642,"MEAN_ANOMALY":279.8537,"EPHEMERIS_TYPE":0,"CLASSIFICATION_TYPE":"U","NORAD_CAT_ID":62071,"ELEMENT_SET_NO":999,"REV_AT_EPOCH":6613,"BSTAR":0.0021299119,"MEAN_MOTION_DOT":0.00063446,"MEAN_MOTION_DDOT":0},{"OBJECT_NAME":"STARLINK-32603","OBJECT_ID":"2024-217R","EPOCH":"2026-01-20T12:20:18.660768","MEAN_MOTION":15.30259783,"ECCENTRICITY":0.00013707,"INCLINATION":53.158,"RA_OF_ASC_NODE":57.7903,"ARG_OF_PERICENTER":90.5996,"MEAN_ANOMALY":269.5161,"EPHEMERIS_TYPE":0,"CLASSIFICATION_TYPE":"U","NORAD_CAT_ID":62072,"ELEMENT_SET_NO":999,"REV_AT_EPOCH":6609,"BSTAR":0.0009733401,"MEAN_MOTION_DOT":0.00028633,"MEAN_MOTION_DDOT":0},{"OBJECT_NAME":"STARLINK-32444","OBJECT_ID":"2024-217S","EPOCH":"2026-01-20T09:03:06.012288","MEAN_MOTION":15.30243167,"ECCENTRICITY":0.00014117,"INCLINATION":53.159,"RA_OF_ASC_NODE":58.381,"ARG_OF_PERICENTER":93.7347,"MEAN_ANOMALY":266.3816,"EPHEMERIS_TYPE":0,"CLASSIFICATION_TYPE":"U","NORAD_CAT_ID":62073,"ELEMENT_SET_NO":999,"REV_AT_EPOCH":6602,"BSTAR":0.0018617605,"MEAN_MOTION_DOT":0.00055266,"MEAN_MOTION_DDOT":0},{"OBJECT_NAME":"STARLINK-32619","OBJECT_ID":"2024-217T","EPOCH":"2026-01-20T19:00:50.222016","MEAN_MOTION":15.30221191,"ECCENTRICITY":0.00012064,"INCLINATION":53.1591,"RA_OF_ASC_NODE":56.6852,"ARG_OF_PERICENTER":116.2194,"MEAN_ANOMALY":243.8931,"EPHEMERIS_TYPE":0,"CLASSIFICATION_TYPE":"U","NORAD_CAT_ID":62074,"ELEMENT_SET_NO":999,"REV_AT_EPOCH":6608,"BSTAR":0.00010453716,"MEAN_MOTION_DOT":2.74e-5,"MEAN_MOTION_DDOT":0},{"OBJECT_NAME":"STARLINK-32580","OBJECT_ID":"2024-217U","EPOCH":"2026-01-20T10:53:03.841152","MEAN_MOTION":15.30250635,"ECCENTRICITY":0.00015171,"INCLINATION":53.1608,"RA_OF_ASC_NODE":45.3457,"ARG_OF_PERICENTER":91.9625,"MEAN_ANOMALY":268.155,"EPHEMERIS_TYPE":0,"CLASSIFICATION_TYPE":"U","NORAD_CAT_ID":62075,"ELEMENT_SET_NO":999,"REV_AT_EPOCH":6621,"BSTAR":0.0011875387,"MEAN_MOTION_DOT":0.00035034,"MEAN_MOTION_DDOT":0},{"OBJECT_NAME":"STARLINK-32617","OBJECT_ID":"2024-217V","EPOCH":"2026-01-20T18:05:20.229504","MEAN_MOTION":15.3026604,"ECCENTRICITY":0.00020708,"INCLINATION":53.1583,"RA_OF_ASC_NODE":43.663,"ARG_OF_PERICENTER":60.9642,"MEAN_ANOMALY":299.1566,"EPHEMERIS_TYPE":0,"CLASSIFICATION_TYPE":"U","NORAD_CAT_ID":62076,"ELEMENT_SET_NO":999,"REV_AT_EPOCH":6626,"BSTAR":0.0019475277,"MEAN_MOTION_DOT":0.00057891,"MEAN_MOTION_DDOT":0},{"OBJECT_NAME":"STARLINK-11384 [DTC]","OBJECT_ID":"2024-220A","EPOCH":"2026-01-20T21:43:11.487648","MEAN_MOTION":15.70746705,"ECCENTRICITY":0.00015278,"INCLINATION":43.0005,"RA_OF_ASC_NODE":331.4836,"ARG_OF_PERICENTER":265.0526,"MEAN_ANOMALY":95.0167,"EPHEMERIS_TYPE":0,"CLASSIFICATION_TYPE":"U","NORAD_CAT_ID":62088,"ELEMENT_SET_NO":999,"REV_AT_EPOCH":6753,"BSTAR":0.0030605821,"MEAN_MOTION_DOT":0.00410705,"MEAN_MOTION_DDOT":0},{"OBJECT_NAME":"STARLINK-11379 [DTC]","OBJECT_ID":"2024-220B","EPOCH":"2026-01-20T21:35:32.885952","MEAN_MOTION":15.70733839,"ECCENTRICITY":0.00017647,"INCLINATION":42.9994,"RA_OF_ASC_NODE":331.4402,"ARG_OF_PERICENTER":244.4059,"MEAN_ANOMALY":115.6626,"EPHEMERIS_TYPE":0,"CLASSIFICATION_TYPE":"U","NORAD_CAT_ID":62089,"ELEMENT_SET_NO":999,"REV_AT_EPOCH":6743,"BSTAR":0.0027833204,"MEAN_MOTION_DOT":0.00371468,"MEAN_MOTION_DDOT":0},{"OBJECT_NAME":"STARLINK-11387 [DTC]","OBJECT_ID":"2024-220C","EPOCH":"2026-01-20T21:27:53.847072","MEAN_MOTION":15.70887412,"ECCENTRICITY":0.0002661,"INCLINATION":42.9989,"RA_OF_ASC_NODE":331.397,"ARG_OF_PERICENTER":243.4543,"MEAN_ANOMALY":116.6052,"EPHEMERIS_TYPE":0,"CLASSIFICATION_TYPE":"U","NORAD_CAT_ID":62090,"ELEMENT_SET_NO":999,"REV_AT_EPOCH":6753,"BSTAR":0.0041485861,"MEAN_MOTION_DOT":0.00571239,"MEAN_MOTION_DDOT":0},{"OBJECT_NAME":"STARLINK-11389 [DTC]","OBJECT_ID":"2024-220D","EPOCH":"2026-01-20T22:51:48.667104","MEAN_MOTION":15.70942252,"ECCENTRICITY":0.00022967,"INCLINATION":43.0012,"RA_OF_ASC_NODE":330.9709,"ARG_OF_PERICENTER":245.7473,"MEAN_ANOMALY":114.3154,"EPHEMERIS_TYPE":0,"CLASSIFICATION_TYPE":"U","NORAD_CAT_ID":62091,"ELEMENT_SET_NO":999,"REV_AT_EPOCH":6744,"BSTAR":0.0038605241,"MEAN_MOTION_DOT":0.00530095,"MEAN_MOTION_DDOT":0},{"OBJECT_NAME":"STARLINK-11388 [DTC]","OBJECT_ID":"2024-220E","EPOCH":"2026-01-20T21:12:36.264384","MEAN_MOTION":15.70831475,"ECCENTRICITY":8.71e-5,"INCLINATION":42.9982,"RA_OF_ASC_NODE":331.3117,"ARG_OF_PERICENTER":249.3795,"MEAN_ANOMALY":110.6979,"EPHEMERIS_TYPE":0,"CLASSIFICATION_TYPE":"U","NORAD_CAT_ID":62092,"ELEMENT_SET_NO":999,"REV_AT_EPOCH":6743,"BSTAR":0.0026109092,"MEAN_MOTION_DOT":0.00348909,"MEAN_MOTION_DDOT":0},{"OBJECT_NAME":"STARLINK-11345 [DTC]","OBJECT_ID":"2024-220F","EPOCH":"2026-01-20T13:27:11.268576","MEAN_MOTION":15.70999266,"ECCENTRICITY":0.00048541,"INCLINATION":43.0002,"RA_OF_ASC_NODE":333.1858,"ARG_OF_PERICENTER":52.9358,"MEAN_ANOMALY":307.1953,"EPHEMERIS_TYPE":0,"CLASSIFICATION_TYPE":"U","NORAD_CAT_ID":62093,"ELEMENT_SET_NO":999,"REV_AT_EPOCH":6738,"BSTAR":0.0031194051,"MEAN_MOTION_DOT":0.00423804,"MEAN_MOTION_DDOT":0},{"OBJECT_NAME":"STARLINK-11381 [DTC]","OBJECT_ID":"2024-220G","EPOCH":"2026-01-20T13:19:29.866656","MEAN_MOTION":15.71070273,"ECCENTRICITY":0.00041977,"INCLINATION":42.9994,"RA_OF_ASC_NODE":333.1427,"ARG_OF_PERICENTER":287.4959,"MEAN_ANOMALY":72.545,"EPHEMERIS_TYPE":0,"CLASSIFICATION_TYPE":"U","NORAD_CAT_ID":62094,"ELEMENT_SET_NO":999,"REV_AT_EPOCH":6738,"BSTAR":0.0029365568,"MEAN_MOTION_DOT":0.00398885,"MEAN_MOTION_DDOT":0},{"OBJECT_NAME":"STARLINK-11369 [DTC]","OBJECT_ID":"2024-220H","EPOCH":"2026-01-20T20:49:39.722304","MEAN_MOTION":15.70794233,"ECCENTRICITY":0.00015272,"INCLINATION":42.9991,"RA_OF_ASC_NODE":331.1833,"ARG_OF_PERICENTER":267.8766,"MEAN_ANOMALY":92.1927,"EPHEMERIS_TYPE":0,"CLASSIFICATION_TYPE":"U","NORAD_CAT_ID":62095,"ELEMENT_SET_NO":999,"REV_AT_EPOCH":6753,"BSTAR":0.0026344701,"MEAN_MOTION_DOT":0.00351617,"MEAN_MOTION_DDOT":0},{"OBJECT_NAME":"STARLINK-11303 [DTC]","OBJECT_ID":"2024-220J","EPOCH":"2026-01-20T05:26:27.150432","MEAN_MOTION":15.70905286,"ECCENTRICITY":0.00016876,"INCLINATION":43.0006,"RA_OF_ASC_NODE":334.974,"ARG_OF_PERICENTER":271.6006,"MEAN_ANOMALY":88.4668,"EPHEMERIS_TYPE":0,"CLASSIFICATION_TYPE":"U","NORAD_CAT_ID":62096,"ELEMENT_SET_NO":999,"REV_AT_EPOCH":6743,"BSTAR":0.0027924716,"MEAN_MOTION_DOT":0.00375566,"MEAN_MOTION_DDOT":0}]
