STARLINK-32604          
1 62070U 24217P   26020.78802712  .00039903  00000+0  13499-2 0  9997
2 62070  53.1576  56.6596 0001489  74.9648 285.1517 15.30255071 66089
STARLINK-32553          
1 62071U 24217Q   26020.78698473  .00063446  00000+0  21299-2 0  9991
2 62071  53.1574  56.6543 0001580  80.2642 279.8537 15.30292763 66133
STARLINK-32603          
1 62072U 24217R   26020.51410487  .00028633  00000+0  97334-3 0  9993
2 62072  53.1580  57.7903 0001370  90.5996 269.5161 15.30259783 66095
STARLINK-32444          
1 62073U 24217S   26020.37715292  .00055266  00000+0  18618-2 0  9999
2 62073  53.1590  58.3810 0001411  93.7347 266.3816 15.30243167 66026
STARLINK-32619          
1 62074U 24217T   26020.79224794  .00002740  00000+0  10454-3 0  9998
2 62074  53.1591  56.6852 0001206 116.2194 243.8931 15.30221191 66085
STARLINK-32580          
1 62075U 24217U   26020.45351668  .00035034  00000+0  11875-2 0  9992
2 62075  53.1608  45.3457 0001517  91.9625 268.1550 15.30250635 66211
STARLINK-32617          
1 62076U 24217V   26020.75370636  .00057891  00000+0  19475-2 0  9991
2 62076  53.1583  43.6630 0002070  60.9642 299.1566 15.30266040 66261
STARLINK-11384 [DTC]    
1 62088U 24220A   26020.90499407  .00410705  00000+0  30606-2 0  9999
2 62088  43.0005 331.4836 0001527 265.0526  95.0167 15.70746705 67538
STARLINK-11379 [DTC]    
1 62089U 24220B   26020.89968618  .00371468  00000+0  27833-2 0  9993
2 62089  42.9994 331.4402 0001764 244.4059 115.6626 15.70733839 67430
STARLINK-11387 [DTC]    
1 62090U 24220C   26020.89437323  .00571239  00000+0  41486-2 0  9997
2 62090  42.9989 331.3970 0002661 243.4543 116.6052 15.70887412 67531
STARLINK-11389 [DTC]    
1 62091U 24220D   26020.95264661  .00530095  00000+0  38605-2 0  9992
2 62091  43.0012 330.9709 0002296 245.7473 114.3154 15.70942252 67449
STARLINK-11388 [DTC]    
1 62092U 24220E   26020.88375306  .00348909  00000+0  26109-2 0  9991
2 62092  42.9982 331.3117 0000871 249.3795 110.6979 15.70831475 67433
STARLINK-11345 [DTC]    
1 62093U 24220F   26020.56054709  .00423804  00000+0  31194-2 0  9996
2 62093  43.0002 333.1858 0004854  52.9358 307.1953 15.70999266 67381
STARLINK-11381 [DTC]    
1 62094U 24220G   26020.55520679  .00398885  00000+0  29366-2 0  9998
2 62094  42.9994 333.1427 0004197 287.4959  72.5450 15.71070273 67388
STARLINK-11369 [DTC]    
1 62095U 24220H   26020.86782086  .00351617  00000+0  26345-2 0  9991
2 62095  42.9991 331.1833 0001527 267.8766  92.1927 15.70794233 67539
STARLINK-11303 [DTC]    
1 62096U 24220J   26020.22670313  .00375566  00000+0  27925-2 0  9995
2 62096  43.0006 334.9740 0001687 271.6006  88.4668 15.70905286 67435
